OBJECT_NAME,OBJECT_ID,EPOCH,MEAN_MOTION,ECCENTRICITY,INCLINATION,RA_OF_ASC_NODE,ARG_OF_PERICENTER,MEAN_ANOMALY,EPHEMERIS_TYPE,CLASSIFICATION_TYPE,NORAD_CAT_ID,ELEMENT_SET_NO,REV_AT_EPOCH,BSTAR,MEAN_MOTION_DOT,MEAN_MOTION_DDOT
H-2A R/B,2006-002B,2026-06-10T00:02:07.165248,15.17972195,.00496471,98.2554,316.1817,287.4198,72.1609,0,U,28932,999,10843,.27969387E-3,.5783E-4,0
RESURS-DK 1,2006-021A,2026-06-09T23:05:38.023296,15.13185061,.00065763,69.9339,358.2552,297.4803,62.5694,0,U,29228,999,10148,.12796544E-3,.2168E-4,0
CZ-4B R/B,2006-046C,2026-06-10T06:20:48.428160,15.17733470,.00312444,97.5459,205.8928,308.0337,51.8077,0,U,29507,999,7408,.19478605E-3,.3908E-4,0
CZ-2C R/B,2007-010B,2026-06-10T00:21:42.736608,14.20274593,.00594393,98.4092,269.7170,26.8954,333.5284,0,U,31114,999,99282,.4896421E-4,.66E-6,0
COSMO-SKYMED 1,2007-023A,2026-06-10T07:37:15.839616,14.97067663,.00010273,97.8853,353.1166,84.7925,275.3414,0,U,31598,999,2876,.1738574E-3,.1944E-4,0
COSMOS 2428,2007-029A,2026-06-10T06:38:07.989504,14.12929481,.0007234,70.9373,8.9882,148.2749,211.8810,0,U,31792,999,97717,-.61947425E-4,-.163E-5,0
SL-16 R/B,2007-029B,2026-06-10T06:35:22.270848,14.14851315,.00022143,70.9762,337.7600,258.9828,279.1441,0,U,31793,999,97846,.18488524E-3,.309E-5,0
KORONAS-FOTON,2009-003A,2026-06-10T03:37:55.653312,15.45577764,.00109478,82.4293,179.5981,170.9533,189.1915,0,U,33504,999,96001,.2230394E-3,.10784E-3,0
CZ-2C R/B,2011-030B,2026-06-10T03:25:59.144160,14.81454046,.00535341,97.8652,116.6566,50.4870,324.6686,0,U,37731,999,80378,.1499998E-3,.1149E-4,0
H-2A R/B,2012-025E,2026-06-10T04:47:13.718976,14.95677558,.00441387,98.4813,135.7688,11.9184,348.3069,0,U,38341,999,76204,.25435014E-3,.2814E-4,0
SHIJIAN-16 (SJ-16),2013-057A,2026-06-10T06:26:41.506944,14.92594323,.00169189,74.9734,9.7875,246.7868,113.1539,0,U,39358,999,68531,.7440196E-4,.738E-5,0
SL-4 R/B,2014-021B,2026-06-09T22:25:32.880576,15.41800711,.00915796,51.6053,246.3003,79.6084,281.5208,0,U,39679,999,67049,.22098053E-3,.1061E-3,0
ALOS-2,2014-029A,2026-06-08T13:11:42.167040,14.79472067,.00016718,97.9210,256.8376,90.6305,269.5098,0,U,39766,999,65030,.20114351E-3,.1451E-4,0
YAOGAN-29,2015-069A,2026-06-10T07:06:19.299744,14.83078402,.00028363,98.0034,189.9180,65.5401,294.6107,0,U,41038,999,56960,.30446741E-4,.194E-5,0
ASTRO-H (HITOMI),2016-012A,2026-06-10T03:53:03.017472,15.10480260,.00096635,30.9976,119.5585,183.6893,176.3675,0,U,41337,999,56622,.11946149E-3,.2113E-4,0
HXMT (HUIYAN),2017-034A,2026-06-10T07:02:19.934592,15.18431383,.00301961,43.0133,221.4275,101.6771,258.7469,0,U,42758,999,49661,.20523288E-3,.4108E-4,0
SAOCOM 1A,2018-076A,2026-06-10T07:37:06.733056,14.82167350,.000148,97.8890,348.1661,77.7640,282.3738,0,U,43641,999,41508,-.33503049E-4,-.319E-5,0
H-2A R/B,2018-084L,2026-06-10T04:45:46.404864,15.44885376,.00241108,98.8593,38.5628,63.6016,296.7699,0,U,43682,999,42004,.42075792E-3,.19885E-3,0
SAOCOM 1B,2020-059A,2026-06-10T06:44:56.287392,14.82166203,.00015051,97.8893,347.2251,82.8935,277.2450,0,U,46265,999,31246,.86878769E-4,.64E-5,0
CSS (TIANHE),2021-035A,2026-06-10T06:11:20.390496,15.60521167,.0008406,41.4694,4.1634,21.6299,338.4893,0,U,48274,999,29208,.26248404E-3,.22027E-3,0
COSMOS 2550,2021-056A,2026-06-08T19:23:25.914048,15.33755463,.0008705,67.1416,125.2525,266.0377,93.9783,0,U,48865,999,27743,.19790476E-3,.631E-4,0
CZ-2C R/B,2022-058K,2026-06-09T10:27:08.924544,15.61324142,.00329769,50.1846,203.8374,235.4973,124.2885,0,U,52794,999,22443,.32951423E-3,.28951E-3,0
CZ-2C R/B,2022-132E,2026-06-10T06:34:14.405376,15.70719752,.00168523,97.2907,167.9934,105.6659,254.6465,0,U,54039,999,20486,.48250253E-3,.6033E-3,0
GSLV R/B,2022-138AN,2026-06-10T04:00:23.971968,14.97225780,.0021835,87.3797,135.3419,167.8586,192.3177,0,U,54149,999,19776,.15709064E-3,.1855E-4,0
XRISM,2023-137A,2026-06-10T03:05:51.489024,15.12404798,.00079443,31.0029,45.3183,253.7122,106.2643,0,U,57800,999,15179,.25478472E-3,.4635E-4,0
ACS3,2024-077B,2026-06-10T00:39:06.092640,13.93923945,.0055842,97.1675,81.4142,68.3490,292.3611,0,U,59588,999,10704,.11908471E-1,.1593E-3,0
CZ-8A R/B,2025-231K,2026-06-10T01:33:06.099552,14.30152912,.01164673,50.0044,69.6181,198.9424,160.7141,0,U,66004,999,3392,.49612733E-4,-.25E-6,0
SZ-21 MODULE,2025-246C,2026-06-10T05:53:58.233696,15.75798052,.0007243,41.4742,350.5399,306.6997,53.3182,0,U,66515,999,3264,.26989048E-3,.42781E-3,0
