H-2A R/B                
1 28932U 06002B   26161.00147182  .00005783  00000+0  27969-3 0  9999
2 28932  98.2554 316.1817 0049647 287.4198  72.1609 15.17972195108433
RESURS-DK 1             
1 29228U 06021A   26160.96224564  .00002168  00000+0  12797-3 0  9990
2 29228  69.9339 358.2552 0006576 297.4803  62.5694 15.13185061101488
CZ-4B R/B               
1 29507U 06046C   26161.26444940  .00003908  00000+0  19479-3 0  9990
2 29507  97.5459 205.8928 0031244 308.0337  51.8077 15.17733470 74081
CZ-2C R/B               
1 31114U 07010B   26161.01507797  .00000066  00000+0  48964-4 0  9996
2 31114  98.4092 269.7170 0059439  26.8954 333.5284 14.20274593992825
COSMO-SKYMED 1          
1 31598U 07023A   26161.31754444  .00001944  00000+0  17386-3 0  9991
2 31598  97.8853 353.1166 0001027  84.7925 275.3414 14.97067663 28766
COSMOS 2428             
1 31792U 07029A   26161.27648136 -.00000163  00000+0 -61947-4 0  9995
2 31792  70.9373   8.9882 0007234 148.2749 211.8810 14.12929481977172
SL-16 R/B               
1 31793U 07029B   26161.27456332  .00000309  00000+0  18489-3 0  9993
2 31793  70.9762 337.7600 0002214 258.9828 279.1441 14.14851315978468
KORONAS-FOTON           
1 33504U 09003A   26161.15133858  .00010784  00000+0  22304-3 0  9990
2 33504  82.4293 179.5981 0010947 170.9533 189.1915 15.45577764960015
CZ-2C R/B               
1 37731U 11030B   26161.14304565  .00001149  00000+0  15000-3 0  9993
2 37731  97.8652 116.6566 0053534  50.4870 324.6686 14.81454046803783
H-2A R/B                
1 38341U 12025E   26161.19946434  .00002814  00000+0  25435-3 0  9991
2 38341  98.4813 135.7688 0044138  11.9184 348.3069 14.95677558762045
SHIJIAN-16 (SJ-16)      
1 39358U 13057A   26161.26853596  .00000738  00000+0  74402-4 0  9992
2 39358  74.9734   9.7875 0016918 246.7868 113.1539 14.92594323685314
SL-4 R/B                
1 39679U 14021B   26160.93440834  .00010610  00000+0  22098-3 0  9993
2 39679  51.6053 246.3003 0091579  79.6084 281.5208 15.41800711670499
ALOS-2                  
1 39766U 14029A   26159.54979360  .00001451  00000+0  20114-3 0  9994
2 39766  97.9210 256.8376 0001671  90.6305 269.5098 14.79472067650306
YAOGAN-29               
1 41038U 15069A   26161.29605671  .00000194  00000+0  30447-4 0  9994
2 41038  98.0034 189.9180 0002836  65.5401 294.6107 14.83078402569600
ASTRO-H (HITOMI)        
1 41337U 16012A   26161.16184048  .00002113  00000+0  11946-3 0  9996
2 41337  30.9976 119.5585 0009663 183.6893 176.3675 15.10480260566223
HXMT (HUIYAN)           
1 42758U 17034A   26161.29328628  .00004108  00000+0  20523-3 0  9994
2 42758  43.0133 221.4275 0030196 101.6771 258.7469 15.18431383496611
SAOCOM 1A               
1 43641U 18076A   26161.31743904 -.00000319  00000+0 -33503-4 0  9999
2 43641  97.8890 348.1661 0001480  77.7640 282.3738 14.82167350415082
H-2A R/B                
1 43682U 18084L   26161.19845376  .00019885  00000+0  42076-3 0  9995
2 43682  98.8593  38.5628 0024110  63.6016 296.7699 15.44885376420048
SAOCOM 1B               
1 46265U 20059A   26161.28120703  .00000640  00000+0  86879-4 0  9999
2 46265  97.8893 347.2251 0001505  82.8935 277.2450 14.82166203312465
CSS (TIANHE)            
1 48274U 21035A   26161.25787489  .00022027  00000+0  26248-3 0  9999
2 48274  41.4694   4.1634 0008406  21.6299 338.4893 15.60521167292083
COSMOS 2550             
1 48865U 21056A   26159.80793882  .00006310  00000+0  19790-3 0  9991
2 48865  67.1416 125.2525 0008705 266.0377  93.9783 15.33755463277435
CZ-2C R/B               
1 52794U 22058K   26160.43551996  .00028951  00000+0  32951-3 0  9998
2 52794  50.1846 203.8374 0032976 235.4973 124.2885 15.61324142224434
CZ-2C R/B               
1 54039U 22132E   26161.27377784  .00060330  00000+0  48250-3 0  9995
2 54039  97.2907 167.9934 0016852 105.6659 254.6465 15.70719752204866
GSLV R/B                
1 54149U 22138AN  26161.16694412  .00001855  00000+0  15709-3 0  9991
2 54149  87.3797 135.3419 0021835 167.8586 192.3177 14.97225780197767
XRISM                   
1 57800U 23137A   26161.12906816  .00004635  00000+0  25478-3 0  9991
2 57800  31.0029  45.3183 0007944 253.7122 106.2643 15.12404798151793
ACS3                    
1 59588U 24077B   26161.02715385  .00015930  00000+0  11908-1 0  9999
2 59588  97.1675  81.4142 0055842  68.3490 292.3611 13.93923945107040
CZ-8A R/B               
1 66004U 25231K   26161.06465393 -.00000025  00000+0  49613-4 0  9995
2 66004  50.0044  69.6181 0116467 198.9424 160.7141 14.30152912 33929
SZ-21 MODULE            
1 66515U 25246C   26161.24581289  .00042781  00000+0  26989-3 0  9995
2 66515  41.4742 350.5399 0007243 306.6997  53.3182 15.75798052 32643
